start=new Date('2023-04-27T00:00:00.000Z').valueOf();
sats=[{"CENTER_NAME":"EARTH","COUNTRY_CODE":"US","PERIOD":"95.599","MEAN_MOTION_DOT":"0.00023221","REF_FRAME":"TEME","EPOCH":"2023-04-26T05:43:34.786848","MEAN_ANOMALY":"266.9507","MEAN_MOTION":"15.06294720","OBJECT_ID":"2020-062D","SITE":"AFETR","PERIAPSIS":"546.650","LAUNCH_DATE":"2020-09-03","TIME_SYSTEM":"UTC","ELEMENT_SET_NO":"999","MEAN_ELEMENT_THEORY":"SGP4","DECAY_DATE":null,"ARG_OF_PERICENTER":"93.1629","SEMIMAJOR_AXIS":"6925.671","CLASSIFICATION_TYPE":"U","ECCENTRICITY":"0.00012800","APOAPSIS":"548.423","EPHEMERIS_TYPE":"0","OBJECT_TYPE":"PAYLOAD","FILE":"3894260","TLE_LINE1":"1 46328U 20062D   23116.23859707  .00023221  00000-0  15771-2 0  9990","OBJECT_NAME":"STARLINK-1686","REV_AT_EPOCH":"14656","NORAD_CAT_ID":"46328","RA_OF_ASC_NODE":"23.2975","INCLINATION":"53.0557","TLE_LINE2":"2 46328  53.0557  23.2975 0001280  93.1629 266.9507 15.06294720146562","MEAN_MOTION_DDOT":"0.0000000000000","GP_ID":"230769288","RCS_SIZE":"LARGE","BSTAR":"0.00157710000000"},{"OBJECT_ID":"2020-062E","EPOCH":"2023-04-26T17:40:10.067232","MEAN_ANOMALY":"275.2225","MEAN_MOTION":"15.06325300","MEAN_MOTION_DOT":"0.00107899","REF_FRAME":"TEME","CENTER_NAME":"EARTH","PERIOD":"95.597","COUNTRY_CODE":"US","ARG_OF_PERICENTER":"84.8887","DECAY_DATE":null,"SEMIMAJOR_AXIS":"6925.578","CLASSIFICATION_TYPE":"U","ELEMENT_SET_NO":"999","MEAN_ELEMENT_THEORY":"SGP4","TIME_SYSTEM":"UTC","SITE":"AFETR","PERIAPSIS":"546.697","LAUNCH_DATE":"2020-09-03","REV_AT_EPOCH":"14663","NORAD_CAT_ID":"46329","TLE_LINE1":"1 46329U 20062E   23116.73622763  .00107899  00000-0  71671-2 0  9991","OBJECT_NAME":"STARLINK-1695","APOAPSIS":"548.188","ECCENTRICITY":"0.00010760","EPHEMERIS_TYPE":"0","OBJECT_TYPE":"PAYLOAD","FILE":"3894261","BSTAR":"0.00716710000000","MEAN_MOTION_DDOT":"0.0000000000000","GP_ID":"230797044","RCS_SIZE":"LARGE","RA_OF_ASC_NODE":"21.0622","INCLINATION":"53.0562","TLE_LINE2":"2 46329  53.0562  21.0622 0001076  84.8887 275.2225 15.06325300146637"},{"BSTAR":"0.00130410000000","MEAN_MOTION_DDOT":"0.0000000000000","RCS_SIZE":"LARGE","GP_ID":"230797293","RA_OF_ASC_NODE":"21.1154","TLE_LINE2":"2 46330  53.0548  21.1154 0001058  98.8760 261.2348 15.06354671146644","INCLINATION":"53.0548","NORAD_CAT_ID":"46330","REV_AT_EPOCH":"14664","TLE_LINE1":"1 46330U 20062F   23116.72516399  .00019173  00000-0  13041-2 0  9993","OBJECT_NAME":"STARLINK-1710","EPHEMERIS_TYPE":"0","ECCENTRICITY":"0.00010580","APOAPSIS":"548.085","OBJECT_TYPE":"PAYLOAD","FILE":"3894261","SEMIMAJOR_AXIS":"6925.487","ARG_OF_PERICENTER":"98.8760","DECAY_DATE":null,"CLASSIFICATION_TYPE":"U","ELEMENT_SET_NO":"999","MEAN_ELEMENT_THEORY":"SGP4","TIME_SYSTEM":"UTC","PERIAPSIS":"546.620","SITE":"AFETR","LAUNCH_DATE":"2020-09-03","OBJECT_ID":"2020-062F","EPOCH":"2023-04-26T17:24:14.168736","MEAN_MOTION":"15.06354671","MEAN_ANOMALY":"261.2348","REF_FRAME":"TEME","MEAN_MOTION_DOT":"0.00019173","CENTER_NAME":"EARTH","COUNTRY_CODE":"US","PERIOD":"95.595"},{"REV_AT_EPOCH":"14628","NORAD_CAT_ID":"46331","TLE_LINE1":"1 46331U 20062G   23116.22940857  .00021000  00000-0  14289-2 0  9996","OBJECT_NAME":"STARLINK-1719","APOAPSIS":"548.213","ECCENTRICITY":"0.00009390","EPHEMERIS_TYPE":"0","FILE":"3894260","OBJECT_TYPE":"PAYLOAD","BSTAR":"0.00142890000000","MEAN_MOTION_DDOT":"0.0000000000000","GP_ID":"230770018","RCS_SIZE":"LARGE","RA_OF_ASC_NODE":"43.3436","INCLINATION":"53.0553","TLE_LINE2":"2 46331  53.0553  43.3436 0000939 100.4482 259.6613 15.06286096146289","OBJECT_ID":"2020-062G","EPOCH":"2023-04-26T05:30:20.900448","MEAN_ANOMALY":"259.6613","MEAN_MOTION":"15.06286096","MEAN_MOTION_DOT":"0.00021000","REF_FRAME":"TEME","CENTER_NAME":"EARTH","PERIOD":"95.599","COUNTRY_CODE":"US","ARG_OF_PERICENTER":"100.4482","DECAY_DATE":null,"SEMIMAJOR_AXIS":"6925.698","CLASSIFICATION_TYPE":"U","ELEMENT_SET_NO":"999","MEAN_ELEMENT_THEORY":"SGP4","TIME_SYSTEM":"UTC","SITE":"AFETR","PERIAPSIS":"546.912","LAUNCH_DATE":"2020-09-03"},{"BSTAR":"0.00195410000000","MEAN_MOTION_DDOT":"0.0000000000000","RCS_SIZE":"LARGE","GP_ID":"230768788","RA_OF_ASC_NODE":"40.2377","TLE_LINE2":"2 46332  53.0554  40.2377 0004159  64.1718 295.9704 15.14978663146323","INCLINATION":"53.0554","NORAD_CAT_ID":"46332","REV_AT_EPOCH":"14632","TLE_LINE1":"1 46332U 20062H   23116.19591765  .00036785  00000-0  19541-2 0  9995","OBJECT_NAME":"STARLINK-1721","EPHEMERIS_TYPE":"0","ECCENTRICITY":"0.00041590","APOAPSIS":"523.915","OBJECT_TYPE":"PAYLOAD","FILE":"3894260","SEMIMAJOR_AXIS":"6899.180","ARG_OF_PERICENTER":"64.1718","DECAY_DATE":null,"CLASSIFICATION_TYPE":"U","ELEMENT_SET_NO":"999","MEAN_ELEMENT_THEORY":"SGP4","TIME_SYSTEM":"UTC","PERIAPSIS":"518.176","SITE":"AFETR","LAUNCH_DATE":"2020-09-03","OBJECT_ID":"2020-062H","EPOCH":"2023-04-26T04:42:07.284960","MEAN_MOTION":"15.14978663","MEAN_ANOMALY":"295.9704","REF_FRAME":"TEME","MEAN_MOTION_DOT":"0.00036785","CENTER_NAME":"EARTH","PERIOD":"95.051","COUNTRY_CODE":"US"},{"TIME_SYSTEM":"UTC","SITE":"AFETR","PERIAPSIS":"546.798","LAUNCH_DATE":"2020-09-03","ARG_OF_PERICENTER":"93.4590","DECAY_DATE":null,"SEMIMAJOR_AXIS":"6925.669","CLASSIFICATION_TYPE":"U","ELEMENT_SET_NO":"999","MEAN_ELEMENT_THEORY":"SGP4","MEAN_MOTION_DOT":"0.00017259","REF_FRAME":"TEME","CENTER_NAME":"EARTH","PERIOD":"95.599","COUNTRY_CODE":"US","OBJECT_ID":"2020-062J","EPOCH":"2023-04-26T02:56:23.722656","MEAN_ANOMALY":"266.6520","MEAN_MOTION":"15.06295391","RA_OF_ASC_NODE":"43.8179","INCLINATION":"53.0551","TLE_LINE2":"2 46333  53.0551  43.8179 0001063  93.4590 266.6520 15.06295391146269","BSTAR":"0.00117800000000","MEAN_MOTION_DDOT":"0.0000000000000","GP_ID":"230769038","RCS_SIZE":"LARGE","TLE_LINE1":"1 46333U 20062J   23116.12249679  .00017259  00000-0  11780-2 0  9995","OBJECT_NAME":"STARLINK-1723","APOAPSIS":"548.270","ECCENTRICITY":"0.00010630","EPHEMERIS_TYPE":"0","OBJECT_TYPE":"PAYLOAD","FILE":"3894260","REV_AT_EPOCH":"14626","NORAD_CAT_ID":"46333"},{"EPHEMERIS_TYPE":"0","ECCENTRICITY":"0.00013540","APOAPSIS":"548.121","FILE":"3894261","OBJECT_TYPE":"PAYLOAD","TLE_LINE1":"1 46334U 20062K   23116.72146879  .00025271  00000-0  17089-2 0  9991","OBJECT_NAME":"STARLINK-1725","NORAD_CAT_ID":"46334","REV_AT_EPOCH":"14663","RA_OF_ASC_NODE":"21.4083","TLE_LINE2":"2 46334  53.0545  21.4083 0001354  85.4589 274.6554 15.06409942146637","INCLINATION":"53.0545","MEAN_MOTION_DDOT":"0.0000000000000","RCS_SIZE":"LARGE","GP_ID":"230796796","BSTAR":"0.00170890000000","CENTER_NAME":"EARTH","COUNTRY_CODE":"US","PERIOD":"95.592","REF_FRAME":"TEME","MEAN_MOTION_DOT":"0.00025271","EPOCH":"2023-04-26T17:18:54.903456","MEAN_MOTION":"15.06409942","MEAN_ANOMALY":"274.6554","OBJECT_ID":"2020-062K","PERIAPSIS":"546.245","SITE":"AFETR","LAUNCH_DATE":"2020-09-03","TIME_SYSTEM":"UTC","ELEMENT_SET_NO":"999","MEAN_ELEMENT_THEORY":"SGP4","SEMIMAJOR_AXIS":"6925.318","ARG_OF_PERICENTER":"85.4589","DECAY_DATE":null,"CLASSIFICATION_TYPE":"U"},{"NORAD_CAT_ID":"46335","REV_AT_EPOCH":"14627","OBJECT_NAME":"STARLINK-1727","TLE_LINE1":"1 46335U 20062L   23116.15195274  .00028941  00000-0  19550-2 0  9994","FILE":"3894260","OBJECT_TYPE":"PAYLOAD","EPHEMERIS_TYPE":"0","ECCENTRICITY":"0.00012850","APOAPSIS":"548.169","BSTAR":"0.00195500000000","RCS_SIZE":"LARGE","GP_ID":"230770518","MEAN_MOTION_DDOT":"0.0000000000000","TLE_LINE2":"2 46335  53.0549  43.6845 0001285 104.7178 255.3953 15.06378615146277","INCLINATION":"53.0549","RA_OF_ASC_NODE":"43.6845","OBJECT_ID":"2020-062L","MEAN_MOTION":"15.06378615","MEAN_ANOMALY":"255.3953","EPOCH":"2023-04-26T03:38:48.716736","REF_FRAME":"TEME","MEAN_MOTION_DOT":"0.00028941","PERIOD":"95.593","COUNTRY_CODE":"US","CENTER_NAME":"EARTH","CLASSIFICATION_TYPE":"U","SEMIMAJOR_AXIS":"6925.414","ARG_OF_PERICENTER":"104.7178","DECAY_DATE":null,"MEAN_ELEMENT_THEORY":"SGP4","ELEMENT_SET_NO":"999","TIME_SYSTEM":"UTC","LAUNCH_DATE":"2020-09-03","PERIAPSIS":"546.389","SITE":"AFETR"},{"CENTER_NAME":"EARTH","COUNTRY_CODE":"US","PERIOD":"95.598","REF_FRAME":"TEME","MEAN_MOTION_DOT":"0.00126573","EPOCH":"2023-04-26T17:45:28.694016","MEAN_MOTION":"15.06312580","MEAN_ANOMALY":"271.9581","OBJECT_ID":"2020-062M","PERIAPSIS":"546.800","SITE":"AFETR","LAUNCH_DATE":"2020-09-03","TIME_SYSTEM":"UTC","ELEMENT_SET_NO":"999","MEAN_ELEMENT_THEORY":"SGP4","SEMIMAJOR_AXIS":"6925.617","DECAY_DATE":null,"ARG_OF_PERICENTER":"88.1520","CLASSIFICATION_TYPE":"U","EPHEMERIS_TYPE":"0","APOAPSIS":"548.163","ECCENTRICITY":"0.00009840","OBJECT_TYPE":"PAYLOAD","FILE":"3894261","TLE_LINE1":"1 46336U 20062M   23116.73991544  .00126573  00000-0  83849-2 0  9995","OBJECT_NAME":"STARLINK-1738","NORAD_CAT_ID":"46336","REV_AT_EPOCH":"14663","RA_OF_ASC_NODE":"21.0459","TLE_LINE2":"2 46336  53.0550  21.0459 0000984  88.1520 271.9581 15.06312580146632","INCLINATION":"53.0550","MEAN_MOTION_DDOT":"0.0000000000000","RCS_SIZE":"LARGE","GP_ID":"230795794","BSTAR":"0.00838490000000"},{"ELEMENT_SET_NO":"999","MEAN_ELEMENT_THEORY":"SGP4","ARG_OF_PERICENTER":"84.9396","DECAY_DATE":null,"SEMIMAJOR_AXIS":"6925.380","CLASSIFICATION_TYPE":"U","SITE":"AFETR","PERIAPSIS":"546.450","LAUNCH_DATE":"2020-09-03","TIME_SYSTEM":"UTC","EPOCH":"2023-04-26T18:06:40.945248","MEAN_ANOMALY":"275.1724","MEAN_MOTION":"15.06389770","OBJECT_ID":"2020-062N","CENTER_NAME":"EARTH","COUNTRY_CODE":"US","PERIOD":"95.593","MEAN_MOTION_DOT":"-0.00002785","REF_FRAME":"TEME","MEAN_MOTION_DDOT":"0.0000000000000","GP_ID":"230797045","RCS_SIZE":"LARGE","BSTAR":"-0.00016820000000","RA_OF_ASC_NODE":"20.9802","INCLINATION":"53.0559","TLE_LINE2":"2 46337  53.0559  20.9802 0001148  84.9396 275.1724 15.06389770146641","REV_AT_EPOCH":"14664","NORAD_CAT_ID":"46337","APOAPSIS":"548.040","ECCENTRICITY":"0.00011480","EPHEMERIS_TYPE":"0","OBJECT_TYPE":"PAYLOAD","FILE":"3894261","TLE_LINE1":"1 46337U 20062N   23116.75464057 -.00002785  00000-0 -16820-3 0  9998","OBJECT_NAME":"STARLINK-1750"}];
